ONEWEB-0340             
1 49206U 21083W   25280.54126374  .00000028  00000+0  38333-4 0  9997
2 49206  87.9227  25.6202 0001777  97.9100 262.2234 13.18686815196670
ONEWEB-0341             
1 49207U 21083X   25280.32022870  .00000003  00000+0 -24692-4 0  9997
2 49207  87.9227  25.6770 0002331 101.4199 258.7196 13.18686787196661
ONEWEB-0342             
1 49208U 21083Y   25280.85347053  .00000120  00000+0  26283-3 0  9995
2 49208  87.9227 324.7539 0001863 100.4236 259.7107 13.20773526203470
ONEWEB-0343             
1 49209U 21083Z   25280.69896874 -.00030053  00000+0 -78102-1 0  9993
2 49209  87.9229  25.5888 0002336 103.4007 256.7385 13.17290391196769
ONEWEB-0344             
1 49210U 21083AA  25280.51493993 -.00000224  00000+0 -64737-3 0  9999
2 49210  87.9040  10.4785 0002229 100.3208 259.8173 13.13470115197727
ONEWEB-0345             
1 49211U 21083AB  25280.50648506 -.00000151  00000+0 -44736-3 0  9997
2 49211  87.9044  10.4346 0002233 102.1411 257.9969 13.13470267197737
ONEWEB-0346             
1 49212U 21083AC  25280.70454367  .00000008  00000+0 -11212-4 0  9994
2 49212  87.9224  25.6086 0001763  80.3638 279.7694 13.18683778196703
ONEWEB-0348             
1 49213U 21083AD  25280.84400381 -.00000164  00000+0 -43486-3 0  9998
2 49213  87.9228 324.7675 0002350  85.7460 274.3942 13.20770141203508
